{
"type": "FeatureCollection",
"features": [
{
  "type": "Feature",
  "id": "node/71672418",
  "properties": {
    "amenity": "restaurant",
    "name": "Legenda",
    "wheelchair": "no",
    "id": "node/71672418"
  },
  "geometry": {
    "type": "Point",
    "coordinates": [
      14.4301538,
      50.0738049
    ]
  }
},
{
  "type": "Feature",
  "id": "node/290027600",
  "properties": {
    "addr:city": "Praha",
    "addr:housenumber": "16",
    "addr:postcode": "12000",
    "addr:street": "Ječná",
    "amenity": "restaurant",
    "email": "pivodum@iol.cz",
    "facebook": "https://www.facebook.com/Pivovarskydum/",
    "microbrewery": "yes",
    "name": "Pivovarský dům",
    "name:he": "פאב בירה",
    "name:ru": "Пивоварский дом",
    "name:zh": "啤酒作坊餐厅",
    "opening_hours": "Mo-Su 11:00-23:30",
    "phone": "+420 296 216 666",
    "smoking": "no",
    "toilets:wheelchair": "no",
    "website": "http://www.pivovarskydum.com/",
    "wheelchair": "limited",
    "id": "node/290027600"
  },
  "geometry": {
    "type": "Point",
    "coordinates": [
      14.423744,
      50.07543
    ]
  }
},
{
  "type": "Feature",
  "id": "node/340137544",
  "properties": {
    "amenity": "restaurant",
    "name": "U Ječmene",
    "id": "node/340137544"
  },
  "geometry": {
    "type": "Point",
    "coordinates": [
      14.4273703,
      50.0753965
    ]
  }
},
{
  "type": "Feature",
  "id": "node/343696015",
  "properties": {
    "addr:city": "Praha",
    "addr:housenumber": "6",
    "addr:postcode": "12000",
    "addr:street": "náměstí I. P. Pavlova",
    "amenity": "restaurant",
    "cuisine": "local",
    "email": "info@restaurant-graff.cz",
    "name": "U Graffů",
    "opening_hours": "Mo-Sa 11:00-00:00; Su 11:00-23:00",
    "phone": "+420 732 765 309",
    "website": "http://www.restaurant-graff.cz",
    "id": "node/343696015"
  },
  "geometry": {
    "type": "Point",
    "coordinates": [
      14.4293927,
      50.0751439
    ]
  }
},
{
  "type": "Feature",
  "id": "node/353109065",
  "properties": {
    "amenity": "restaurant",
    "name": "U Vočka",
    "id": "node/353109065"
  },
  "geometry": {
    "type": "Point",
    "coordinates": [
      14.4266354,
      50.0754205
    ]
  }
},
{
  "type": "Feature",
  "id": "node/355008200",
  "properties": {
    "addr:city": "Praha",
    "addr:housenumber": "14",
    "addr:postcode": "12000",
    "addr:street": "Odborů",
    "amenity": "restaurant",
    "cuisine": "regional",
    "name": "Karlův sklep",
    "opening_hours": "Mo-Sa 11:00-23:30; Su 12:00-22:00",
    "website": "http://www.karluvsklep.cz/",
    "id": "node/355008200"
  },
  "geometry": {
    "type": "Point",
    "coordinates": [
      14.4191032,
      50.0775048
    ]
  }
},
{
  "type": "Feature",
  "id": "node/355008202",
  "properties": {
    "amenity": "restaurant",
    "cuisine": "chinese",
    "name": "Čínský bufet",
    "id": "node/355008202"
  },
  "geometry": {
    "type": "Point",
    "coordinates": [
      14.4191998,
      50.0772695
    ]
  }
},
{
  "type": "Feature",
  "id": "node/355008204",
  "properties": {
    "amenity": "restaurant",
    "cuisine": "regional",
    "name": "U Sedlerů",
    "id": "node/355008204"
  },
  "geometry": {
    "type": "Point",
    "coordinates": [
      14.419166,
      50.077102
    ]
  }
},
{
  "type": "Feature",
  "id": "node/359948171",
  "properties": {
    "addr:city": "Praha",
    "addr:housenumber": "12",
    "addr:postcode": "12000",
    "addr:street": "Na Bojišti",
    "amenity": "restaurant",
    "beer": "industrial",
    "name": "Švejk Hostinec U Kalicha",
    "id": "node/359948171"
  },
  "geometry": {
    "type": "Point",
    "coordinates": [
      14.4279919,
      50.0734593
    ]
  }
},
{
  "type": "Feature",
  "id": "node/359948264",
  "properties": {
    "addr:city": "Praha",
    "addr:housenumber": "10",
    "addr:postcode": "12000",
    "addr:street": "Ke Karlovu",
    "amenity": "restaurant",
    "name": "Buket",
    "id": "node/359948264"
  },
  "geometry": {
    "type": "Point",
    "coordinates": [
      14.4277116,
      50.0725058
    ]
  }
},
{
  "type": "Feature",
  "id": "node/418870684",
  "properties": {
    "amenity": "restaurant",
    "name": "Na křižovatce \"Uterus\"",
    "id": "node/418870684"
  },
  "geometry": {
    "type": "Point",
    "coordinates": [
      14.4243288,
      50.0739172
    ]
  }
},
{
  "type": "Feature",
  "id": "node/428890181",
  "properties": {
    "addr:city": "Praha",
    "addr:housenumber": "4",
    "addr:postcode": "12000",
    "addr:street": "Karlovo náměstí",
    "amenity": "restaurant",
    "name": "U Fausta",
    "id": "node/428890181"
  },
  "geometry": {
    "type": "Point",
    "coordinates": [
      14.4185354,
      50.0740859
    ]
  }
},
{
  "type": "Feature",
  "id": "node/436620632",
  "properties": {
    "amenity": "restaurant",
    "name": "Posezení u Čiriny",
    "id": "node/436620632"
  },
  "geometry": {
    "type": "Point",
    "coordinates": [
      14.4225485,
      50.0784915
    ]
  }
},
{
  "type": "Feature",
  "id": "node/436620633",
  "properties": {
    "amenity": "restaurant",
    "cuisine": "japanese;tea",
    "name": "Miyabi",
    "id": "node/436620633"
  },
  "geometry": {
    "type": "Point",
    "coordinates": [
      14.4233081,
      50.0785279
    ]
  }
},
{
  "type": "Feature",
  "id": "node/671929415",
  "properties": {
    "amenity": "restaurant",
    "name": "Braunův sklep",
    "website": "http://www.braunuvsklep.cz/",
    "id": "node/671929415"
  },
  "geometry": {
    "type": "Point",
    "coordinates": [
      14.4215669,
      50.077999
    ]
  }
},
{
  "type": "Feature",
  "id": "node/671929416",
  "properties": {
    "addr:city": "Praha",
    "addr:conscriptionnumber": "1701",
    "addr:housenumber": "1701/15",
    "addr:postcode": "11000",
    "addr:street": "Žitná",
    "addr:streetnumber": "15",
    "amenity": "restaurant",
    "cuisine": "regional",
    "internet_access": "wlan",
    "internet_access:fee": "no",
    "name": "U Pravdů",
    "opening_hours": "Mo-Fr 11:00-23:00; Sa-Su 12:00-23:00",
    "phone": "+420 222 233 915",
    "smoking": "isolated",
    "takeaway": "no",
    "website": "https://www.upravdu.com/",
    "id": "node/671929416"
  },
  "geometry": {
    "type": "Point",
    "coordinates": [
      14.4234741,
      50.0775247
    ]
  }
},
{
  "type": "Feature",
  "id": "node/672657517",
  "properties": {
    "addr:city": "Praha",
    "addr:conscriptionnumber": "543",
    "addr:country": "CZ",
    "addr:housenumber": "543/3",
    "addr:place": "Nové Město",
    "addr:postcode": "12000",
    "addr:street": "Štěpánská",
    "addr:streetnumber": "3",
    "addr:suburb": "Praha 2",
    "amenity": "restaurant",
    "email": "usumavy@seznam.cz",
    "facebook": "https://www.facebook.com/usumavy",
    "name": "U Šumavy",
    "opening_hours": "Mo-Su 11:00-24:00",
    "phone": "+420 775 555 297",
    "ref:ruian:addr": "21731128",
    "source:addr": "cuzk:ruian",
    "source:loc": "survey",
    "toilets:wheelchair": "no",
    "website": "http://www.usumavy.cz/",
    "wheelchair": "limited",
    "id": "node/672657517"
  },
  "geometry": {
    "type": "Point",
    "coordinates": [
      14.4240797,
      50.07602
    ]
  }
},
{
  "type": "Feature",
  "id": "node/714276083",
  "properties": {
    "amenity": "restaurant",
    "cuisine": "mexican",
    "name": "El Pueblo",
    "opening_hours": "Mo-Fr 10:30-23:30; Sa-Su 12:00-23:30",
    "website": "http://www.elpueblo.cz/",
    "id": "node/714276083"
  },
  "geometry": {
    "type": "Point",
    "coordinates": [
      14.4271932,
      50.0795727
    ]
  }
},
{
  "type": "Feature",
  "id": "node/854714238",
  "properties": {
    "amenity": "restaurant",
    "name": "Jiná krajina",
    "opening_hours": "Mo-Fr 11:00-23:00",
    "phone": "+420 222 231 148",
    "website": "http://www.jinakrajina.cz/",
    "id": "node/854714238"
  },
  "geometry": {
    "type": "Point",
    "coordinates": [
      14.4222268,
      50.0780401
    ]
  }
},
{
  "type": "Feature",
  "id": "node/854714243",
  "properties": {
    "amenity": "restaurant",
    "email": "info@pricnyrez.cz",
    "name": "Příčný řez",
    "opening_hours": "Mo-Th 10:30-23:00; Fr 10:30-24:00",
    "phone": "+420 222 233 283",
    "toilets": "yes",
    "website": "http://www.pricnyrez.cz/",
    "id": "node/854714243"
  },
  "geometry": {
    "type": "Point",
    "coordinates": [
      14.4226131,
      50.0780229
    ]
  }
},
{
  "type": "Feature",
  "id": "node/854714252",
  "properties": {
    "addr:city": "Praha",
    "addr:housenumber": "28",
    "addr:postcode": "12000",
    "addr:street": "Karlovo náměstí",
    "amenity": "restaurant",
    "name": "Pizzeria Donna",
    "website": "https://www.pizzadonna.cz/",
    "id": "node/854714252"
  },
  "geometry": {
    "type": "Point",
    "coordinates": [
      14.4213739,
      50.0771864
    ]
  }
},
{
  "type": "Feature",
  "id": "node/854714264",
  "properties": {
    "amenity": "restaurant",
    "name": "Karlův hostinec",
    "website": "https://www.dicarlo.cz/",
    "id": "node/854714264"
  },
  "geometry": {
    "type": "Point",
    "coordinates": [
      14.421685,
      50.0766734
    ]
  }
},
{
  "type": "Feature",
  "id": "node/854714270",
  "properties": {
    "amenity": "restaurant",
    "name": "Pizzeria di Carlo I - Giardino",
    "website": "http://www.pizzeriacarlo.cz/",
    "id": "node/854714270"
  },
  "geometry": {
    "type": "Point",
    "coordinates": [
      14.4218513,
      50.0766665
    ]
  }
},
{
  "type": "Feature",
  "id": "node/1116224700",
  "properties": {
    "amenity": "restaurant",
    "name": "Café kino MAT",
    "id": "node/1116224700"
  },
  "geometry": {
    "type": "Point",
    "coordinates": [
      14.4192847,
      50.0777386
    ]
  }
},
{
  "type": "Feature",
  "id": "node/1226525996",
  "properties": {
    "amenity": "restaurant",
    "cuisine": "regional",
    "name": "Na Blbým místě",
    "id": "node/1226525996"
  },
  "geometry": {
    "type": "Point",
    "coordinates": [
      14.4257859,
      50.0798524
    ]
  }
},
{
  "type": "Feature",
  "id": "node/1226744002",
  "properties": {
    "addr:city": "Praha",
    "addr:housenumber": "20",
    "addr:postcode": "11000",
    "addr:street": "Vodičkova",
    "amenity": "restaurant",
    "microbrewery": "yes",
    "name": "Novoměstský pivovar",
    "url": "http://www.npivovar.cz",
    "id": "node/1226744002"
  },
  "geometry": {
    "type": "Point",
    "coordinates": [
      14.4230794,
      50.0795415
    ]
  }
},
{
  "type": "Feature",
  "id": "node/1249780104",
  "properties": {
    "addr:city": "Praha",
    "addr:housenumber": "8",
    "addr:postcode": "11000",
    "addr:street": "Vodičkova",
    "amenity": "restaurant",
    "cuisine": "italian",
    "internet_access": "wlan",
    "name": "Pastacaffé",
    "opening_hours": "Mo-Sa 08:00-22:00; Su 10:00-22:00",
    "phone": "+420 222 231 869",
    "smoking": "no",
    "website": "http://pastacaffe-vodickova.ambi.cz/",
    "id": "node/1249780104"
  },
  "geometry": {
    "type": "Point",
    "coordinates": [
      14.4220013,
      50.0787807
    ]
  }
},
{
  "type": "Feature",
  "id": "node/1279427249",
  "properties": {
    "addr:city": "Praha",
    "addr:conscriptionnumber": "315",
    "addr:country": "CZ",
    "addr:housenumber": "315/6",
    "addr:place": "Nové Město",
    "addr:postcode": "12000",
    "addr:street": "Karlovo náměstí",
    "addr:streetnumber": "6",
    "addr:suburb": "Praha 2",
    "amenity": "restaurant",
    "cuisine": "asian",
    "internet_access": "wlan",
    "internet_access:fee": "no",
    "name": "Yong",
    "opening_hours": "Mo-Fr 10:30-22:00; Sa,Su 11:00-22:00",
    "phone": "+420 224 923 785",
    "ref:ruian:addr": "21728330",
    "source:addr": "cuzk:ruian",
    "source:loc": "survey",
    "website": "http://www.yong.cz/",
    "id": "node/1279427249"
  },
  "geometry": {
    "type": "Point",
    "coordinates": [
      14.4181828,
      50.0744589
    ]
  }
},
{
  "type": "Feature",
  "id": "node/1446626045",
  "properties": {
    "amenity": "restaurant",
    "name": "Šenkovna",
    "website": "http://www.senkovnapub.cz/",
    "id": "node/1446626045"
  },
  "geometry": {
    "type": "Point",
    "coordinates": [
      14.4293553,
      50.076082
    ]
  }
},
{
  "type": "Feature",
  "id": "node/1507176030",
  "properties": {
    "addr:city": "Praha",
    "addr:housenumber": "42",
    "addr:postcode": "12000",
    "addr:street": "Kateřinská",
    "amenity": "restaurant",
    "cuisine": "indian",
    "name": "Golden Tikka",
    "id": "node/1507176030"
  },
  "geometry": {
    "type": "Point",
    "coordinates": [
      14.4285401,
      50.0752463
    ]
  }
},
{
  "type": "Feature",
  "id": "node/1507177182",
  "properties": {
    "amenity": "restaurant",
    "cuisine": "korean",
    "name": "Mamy",
    "id": "node/1507177182"
  },
  "geometry": {
    "type": "Point",
    "coordinates": [
      14.4293769,
      50.0747567
    ]
  }
},
{
  "type": "Feature",
  "id": "node/1806477412",
  "properties": {
    "amenity": "restaurant",
    "cuisine": "regional",
    "internet_access": "wlan",
    "name": "Druhej svět",
    "opening_hours": "Mo-Su 11:30-00:00",
    "website": "http://www.druhejsvet.cz/",
    "id": "node/1806477412"
  },
  "geometry": {
    "type": "Point",
    "coordinates": [
      14.4294815,
      50.0775935
    ]
  }
},
{
  "type": "Feature",
  "id": "node/1813901506",
  "properties": {
    "amenity": "restaurant",
    "cuisine": "mexican",
    "name": "Banditos",
    "wheelchair": "no",
    "id": "node/1813901506"
  },
  "geometry": {
    "type": "Point",
    "coordinates": [
      14.4271025,
      50.0751421
    ]
  }
},
{
  "type": "Feature",
  "id": "node/1927001354",
  "properties": {
    "addr:city": "Praha",
    "addr:housenumber": "5",
    "addr:postcode": "12000",
    "addr:street": "Vodičkova",
    "amenity": "restaurant",
    "cuisine": "burger",
    "name": "Hooters",
    "website": "https://www.hooters.cz/",
    "id": "node/1927001354"
  },
  "geometry": {
    "type": "Point",
    "coordinates": [
      14.4215603,
      50.078623
    ]
  }
},
{
  "type": "Feature",
  "id": "node/2295909173",
  "properties": {
    "addr:city": "Praha",
    "addr:housenumber": "12",
    "addr:postcode": "11000",
    "addr:street": "Školská",
    "amenity": "restaurant",
    "cuisine": "regional",
    "name": "Hloupý Honza",
    "opening_hours": "Mo-Fr 11:00-24:00; Sa 12:00-24:00; Su 12:00-23:00",
    "phone": "+420 775 343 970",
    "smoking": "no",
    "website": "https://www.hloupyhonza.cz/",
    "id": "node/2295909173"
  },
  "geometry": {
    "type": "Point",
    "coordinates": [
      14.4243829,
      50.0783152
    ]
  }
},
{
  "type": "Feature",
  "id": "node/2295909177",
  "properties": {
    "addr:city": "Praha 2",
    "addr:housenumber": "6",
    "addr:postcode": "12000",
    "addr:street": "Anglická",
    "amenity": "restaurant",
    "cuisine": "chinese",
    "internet_access": "no",
    "name": "Shanghai",
    "opening_hours": "Mo-Sa 10:30-22:30; Su 17:00-22:30",
    "payment:cash": "yes",
    "payment:credit_cards": "no",
    "phone": "+420 224 218 154",
    "id": "node/2295909177"
  },
  "geometry": {
    "type": "Point",
    "coordinates": [
      14.4311017,
      50.0769622
    ]
  }
},
{
  "type": "Feature",
  "id": "node/2295909179",
  "properties": {
    "amenity": "restaurant",
    "name": "U Munků",
    "id": "node/2295909179"
  },
  "geometry": {
    "type": "Point",
    "coordinates": [
      14.4305272,
      50.0766827
    ]
  }
},
{
  "type": "Feature",
  "id": "node/2407687575",
  "properties": {
    "amenity": "restaurant",
    "brewery": "various",
    "cuisine": "regional",
    "currency:CZK": "yes",
    "currency:others": "no",
    "microbrewery": "no",
    "name": "Kulový blesk",
    "name:ru": "Шаровая молния",
    "opening_hours": "Mo-Fr 11:00-23:00; Sa-Su 17:00-23:00",
    "outdoor_seating": "yes",
    "payment:cash": "yes",
    "payment:credit_cards": "no",
    "payment:debit_cards": "no",
    "payment:meal_voucher": "yes",
    "phone": "+420 721 420 859",
    "real_ale": "yes",
    "smoking": "no",
    "source": "www",
    "website": "http://www.restauracekulovyblesk.cz/",
    "wheelchair": "no",
    "id": "node/2407687575"
  },
  "geometry": {
    "type": "Point",
    "coordinates": [
      14.4290561,
      50.0735866
    ]
  }
},
{
  "type": "Feature",
  "id": "node/2532637827",
  "properties": {
    "addr:city": "Praha",
    "addr:housenumber": "7",
    "addr:postcode": "12000",
    "addr:street": "Kateřinská",
    "amenity": "restaurant",
    "email": "uemydestinnove@seznam.cz",
    "fax": "+420 724 977 602",
    "name": "Restaurant U Emy Destinové",
    "opening_hours": "Mo-Sa 11:00-23:00",
    "phone": "+420 224 918 425",
    "website": "https://www.uemydestinnove.cz/",
    "id": "node/2532637827"
  },
  "geometry": {
    "type": "Point",
    "coordinates": [
      14.4247729,
      50.0741388
    ]
  }
},
{
  "type": "Feature",
  "id": "node/2737439851",
  "properties": {
    "addr:city": "Praha",
    "addr:housenumber": "4",
    "addr:postcode": "12000",
    "addr:street": "Mikovcova",
    "amenity": "restaurant",
    "cuisine": "regional",
    "name": "Nota Bene",
    "wheelchair": "limited",
    "id": "node/2737439851"
  },
  "geometry": {
    "type": "Point",
    "coordinates": [
      14.4308169,
      50.0763589
    ]
  }
},
{
  "type": "Feature",
  "id": "node/2918048201",
  "properties": {
    "addr:city": "Praha",
    "addr:conscriptionnumber": "1631",
    "addr:country": "CZ",
    "addr:housenumber": "1631/6",
    "addr:place": "Nové Město",
    "addr:postcode": "12000",
    "addr:street": "Hálkova",
    "addr:streetnumber": "6",
    "addr:suburb": "Praha 2",
    "amenity": "restaurant",
    "cuisine": "regional;international",
    "internet_access": "wlan",
    "internet_access:fee": "no",
    "name": "U Havrana",
    "opening_hours": "Mo-Th 16:00-03:00; Fr, Sa 16:00-05:00",
    "outdoor_seating": "no",
    "phone": "+420 222 980 750",
    "ref:ruian:addr": "21732981",
    "source:addr": "cuzk:ruian",
    "source:loc": "survey",
    "website": "http://www.restauraceuhavrana.cz/",
    "id": "node/2918048201"
  },
  "geometry": {
    "type": "Point",
    "coordinates": [
      14.4284207,
      50.0761549
    ]
  }
},
{
  "type": "Feature",
  "id": "node/3329544897",
  "properties": {
    "addr:city": "Praha",
    "addr:conscriptionnumber": "317",
    "addr:country": "CZ",
    "addr:housenumber": "317/5",
    "addr:place": "Nové Město",
    "addr:postcode": "12000",
    "addr:street": "Karlovo náměstí",
    "addr:streetnumber": "5",
    "addr:suburb": "Praha 2",
    "amenity": "restaurant",
    "cuisine": "chinese",
    "name": "Kang Le",
    "ref:ruian:addr": "21728356",
    "source:addr": "cuzk:ruian",
    "source:loc": "survey",
    "id": "node/3329544897"
  },
  "geometry": {
    "type": "Point",
    "coordinates": [
      14.4182532,
      50.0742645
    ]
  }
},
{
  "type": "Feature",
  "id": "node/3458892155",
  "properties": {
    "addr:city": "Praha",
    "addr:conscriptionnumber": "551",
    "addr:country": "CZ",
    "addr:housenumber": "551/34",
    "addr:place": "Nové Město",
    "addr:postcode": "12000",
    "addr:street": "Karlovo náměstí",
    "addr:streetnumber": "34",
    "addr:suburb": "Praha 2",
    "amenity": "restaurant",
    "cuisine": "burger;sandwich;steak_house",
    "dog": "yes",
    "name": "Beer and Burger U Čížků",
    "opening_hours": "Mo-Fr 10:00-23:00; Sa,Su 11:00-23:00",
    "outdoor_seating": "yes",
    "phone": "+420 223 003 424",
    "ref:ruian:addr": "21731241",
    "short_name": "Beer & Burger U Čížků",
    "smoking": "outside",
    "source:addr": "cuzk:ruian",
    "source:loc": "survey",
    "website": "http://www.ucizku.cz/",
    "id": "node/3458892155"
  },
  "geometry": {
    "type": "Point",
    "coordinates": [
      14.4210501,
      50.0760113
    ]
  }
},
{
  "type": "Feature",
  "id": "node/3470917450",
  "properties": {
    "addr:city": "Praha",
    "addr:housenumber": "13",
    "addr:postcode": "11000",
    "addr:street": "Mezibranská",
    "amenity": "restaurant",
    "cuisine": "regional",
    "internet_access": "wlan",
    "name": "Husinec",
    "opening_hours": "Mo-Su 11:00-24:00",
    "phone": "+420 222 220 826",
    "website": "http://www.husinecrestaurace.cz/",
    "id": "node/3470917450"
  },
  "geometry": {
    "type": "Point",
    "coordinates": [
      14.4292675,
      50.0784428
    ]
  }
},
{
  "type": "Feature",
  "id": "node/3602336140",
  "properties": {
    "addr:city": "Praha",
    "addr:housenumber": "64",
    "addr:postcode": "12000",
    "addr:street": "Legerova",
    "amenity": "restaurant",
    "name": "Pizza Coloseum",
    "id": "node/3602336140"
  },
  "geometry": {
    "type": "Point",
    "coordinates": [
      14.4304012,
      50.0753272
    ]
  }
},
{
  "type": "Feature",
  "id": "node/3602336142",
  "properties": {
    "addr:city": "Praha",
    "addr:housenumber": "45",
    "addr:postcode": "12000",
    "addr:street": "Ječná",
    "amenity": "restaurant",
    "name": "U Mlsného bobra",
    "id": "node/3602336142"
  },
  "geometry": {
    "type": "Point",
    "coordinates": [
      14.4288187,
      50.0756413
    ]
  }
},
{
  "type": "Feature",
  "id": "node/3623360679",
  "properties": {
    "addr:city": "Praha",
    "addr:housenumber": "10",
    "addr:postcode": "12000",
    "addr:street": "Ke Karlovu",
    "amenity": "restaurant",
    "name": "Creperie Blé noir",
    "id": "node/3623360679"
  },
  "geometry": {
    "type": "Point",
    "coordinates": [
      14.4277438,
      50.0724456
    ]
  }
},
{
  "type": "Feature",
  "id": "node/3625312748",
  "properties": {
    "addr:city": "Praha",
    "addr:housenumber": "8",
    "addr:postcode": "12000",
    "addr:street": "Lípová",
    "amenity": "restaurant",
    "name": "Jin Xin",
    "id": "node/3625312748"
  },
  "geometry": {
    "type": "Point",
    "coordinates": [
      14.424013,
      50.0743635
    ]
  }
},
{
  "type": "Feature",
  "id": "node/3689567201",
  "properties": {
    "addr:city": "Praha",
    "addr:housenumber": "14",
    "addr:postcode": "11000",
    "addr:street": "Školská",
    "amenity": "restaurant",
    "cuisine": "regional",
    "name": "U Rumpálu",
    "opening_hours": "Mo-Fr 11:00-23:00; Sa,Su 12:00-23:00",
    "phone": "+420 775 136 179",
    "website": "http://u.rumpalu.cz/",
    "id": "node/3689567201"
  },
  "geometry": {
    "type": "Point",
    "coordinates": [
      14.4244312,
      50.0784681
    ]
  }
},
{
  "type": "Feature",
  "id": "node/3724741324",
  "properties": {
    "amenity": "restaurant",
    "cuisine": "regional",
    "name": "U Možných",
    "id": "node/3724741324"
  },
  "geometry": {
    "type": "Point",
    "coordinates": [
      14.4314018,
      50.0746121
    ]
  }
},
{
  "type": "Feature",
  "id": "node/3724788088",
  "properties": {
    "addr:city": "Praha",
    "addr:housenumber": "47",
    "addr:postcode": "12000",
    "addr:street": "Legerova",
    "amenity": "restaurant",
    "name": "Pizza Roma",
    "id": "node/3724788088"
  },
  "geometry": {
    "type": "Point",
    "coordinates": [
      14.4299795,
      50.0745534
    ]
  }
},
{
  "type": "Feature",
  "id": "node/3902578770",
  "properties": {
    "addr:city": "Praha",
    "addr:conscriptionnumber": "619",
    "addr:country": "CZ",
    "addr:housenumber": "619/28",
    "addr:place": "Nové Město",
    "addr:postcode": "11000",
    "addr:street": "Štěpánská",
    "addr:streetnumber": "28",
    "addr:suburb": "Praha 1",
    "amenity": "restaurant",
    "cuisine": "regional",
    "description": "jídelna",
    "fast_food": "cafeteria",
    "name": "Jídelna Štěpánská",
    "opening_hours": "Mo-Fr 07:30-15:00",
    "ref:ruian:addr": "21703965",
    "source:addr": "cuzk:ruian",
    "source:loc": "survey",
    "website": "http://www.trojanka.cz/",
    "id": "node/3902578770"
  },
  "geometry": {
    "type": "Point",
    "coordinates": [
      14.4259214,
      50.0791215
    ]
  }
},
{
  "type": "Feature",
  "id": "node/4112328689",
  "properties": {
    "addr:conscriptionnumber": "549",
    "addr:housenumber": "549/5",
    "addr:street": "Ječná",
    "addr:streetnumber": "5",
    "amenity": "restaurant",
    "cuisine": "italian;italian_pizza;pasta",
    "name": "Pizzeria Al Tagliere",
    "opening_hours": "Mo-Sa 11:00-22:30",
    "phone": "222519038",
    "id": "node/4112328689"
  },
  "geometry": {
    "type": "Point",
    "coordinates": [
      14.4216758,
      50.0757965
    ]
  }
},
{
  "type": "Feature",
  "id": "node/4158081789",
  "properties": {
    "addr:conscriptionnumber": "1436",
    "addr:housenumber": "1436/3",
    "addr:street": "Krakovská",
    "addr:streetnumber": "3",
    "amenity": "restaurant",
    "cuisine": "vietnamese",
    "name": "Phollow",
    "opening_hours": "Mo-Su 11:00-23:00",
    "id": "node/4158081789"
  },
  "geometry": {
    "type": "Point",
    "coordinates": [
      14.4275802,
      50.077568
    ]
  }
},
{
  "type": "Feature",
  "id": "node/4184471419",
  "properties": {
    "addr:city": "Praha",
    "addr:housenumber": "30",
    "addr:postcode": "11000",
    "addr:street": "Školská",
    "amenity": "restaurant",
    "cuisine": "regional",
    "internet_access": "wlan",
    "name": "Café Therapy",
    "opening_hours": "Mo-Fr 10:30-22:00; Sa-Su 12:00-22:00",
    "phone": "+420 774 491 177",
    "toilets:wheelchair": "yes",
    "website": "http://www.cafe-therapy.cz/",
    "wheelchair": "yes",
    "id": "node/4184471419"
  },
  "geometry": {
    "type": "Point",
    "coordinates": [
      14.4240617,
      50.0796005
    ]
  }
},
{
  "type": "Feature",
  "id": "node/4184471422",
  "properties": {
    "amenity": "restaurant",
    "name": "Asmera",
    "id": "node/4184471422"
  },
  "geometry": {
    "type": "Point",
    "coordinates": [
      14.4245178,
      50.0787433
    ]
  }
},
{
  "type": "Feature",
  "id": "node/4184471425",
  "properties": {
    "addr:city": "Praha",
    "addr:housenumber": "37",
    "addr:postcode": "11000",
    "addr:street": "Štěpánská",
    "amenity": "restaurant",
    "name": "Tuscany Taste",
    "id": "node/4184471425"
  },
  "geometry": {
    "type": "Point",
    "coordinates": [
      14.4252167,
      50.0790348
    ]
  }
},
{
  "type": "Feature",
  "id": "node/4184471427",
  "properties": {
    "addr:city": "Praha",
    "addr:housenumber": "24",
    "addr:postcode": "11000",
    "addr:street": "Štěpánská",
    "amenity": "restaurant",
    "cuisine": "creperie;steak",
    "name": "Titanic",
    "opening_hours": "Mo-Sa 11:00-23:00",
    "phone": "+420 296 226 282",
    "website": "http://www.titanicrestaurant.cz/",
    "id": "node/4184471427"
  },
  "geometry": {
    "type": "Point",
    "coordinates": [
      14.4255734,
      50.0786949
    ]
  }
},
{
  "type": "Feature",
  "id": "node/4184471429",
  "properties": {
    "addr:city": "Praha",
    "addr:housenumber": "31",
    "addr:postcode": "11000",
    "addr:street": "Štěpánská",
    "amenity": "restaurant",
    "cuisine": "italian",
    "name": "Restaurant Bresto",
    "opening_hours": "Mo-Fr 11:00-24:00; Sa-Su 12:00-23:30",
    "phone": "+420 222 212 810",
    "id": "node/4184471429"
  },
  "geometry": {
    "type": "Point",
    "coordinates": [
      14.4249592,
      50.0783756
    ]
  }
},
{
  "type": "Feature",
  "id": "node/4184471430",
  "properties": {
    "addr:city": "Praha",
    "addr:housenumber": "14",
    "addr:postcode": "11000",
    "addr:street": "Štěpánská",
    "amenity": "restaurant",
    "cuisine": "international",
    "name": "Pizza U Džberu",
    "opening_hours": "Mo-Fr 11:00-23:00; Sa 10:00-23:00",
    "phone": "+420 296 227 232",
    "website": "http://www.udzberu.cz/",
    "id": "node/4184471430"
  },
  "geometry": {
    "type": "Point",
    "coordinates": [
      14.4251121,
      50.0777215
    ]
  }
},
{
  "type": "Feature",
  "id": "node/4184471431",
  "properties": {
    "addr:city": "Praha",
    "addr:housenumber": "23",
    "addr:postcode": "11000",
    "addr:street": "Štěpánská",
    "amenity": "restaurant",
    "cuisine": "chinese",
    "name": "Le Xin",
    "opening_hours": "Mo-Fr 10:00-22:00; Sa-Su 11:00-22:00",
    "phone": "+420 222 233 898",
    "id": "node/4184471431"
  },
  "geometry": {
    "type": "Point",
    "coordinates": [
      14.4247285,
      50.077786
    ]
  }
},
{
  "type": "Feature",
  "id": "node/4192336065",
  "properties": {
    "amenity": "restaurant",
    "name": "Brasserie Délice",
    "id": "node/4192336065"
  },
  "geometry": {
    "type": "Point",
    "coordinates": [
      14.4223608,
      50.0773017
    ]
  }
},
{
  "type": "Feature",
  "id": "node/4328186518",
  "properties": {
    "addr:city": "Praha 2",
    "addr:housenumber": "78",
    "addr:postcode": "12000",
    "addr:street": "Legerova",
    "amenity": "restaurant",
    "capacity": "20",
    "cuisine": "regional",
    "name": "Pivní mapa",
    "opening_hours": "Mo-Su 13:00-22:00",
    "phone": "+420 721 250 180",
    "website": "www.pivnimapa.eu",
    "id": "node/4328186518"
  },
  "geometry": {
    "type": "Point",
    "coordinates": [
      14.4305524,
      50.0768883
    ]
  }
},
{
  "type": "Feature",
  "id": "node/4328186520",
  "properties": {
    "addr:city": "Praha 2",
    "addr:housenumber": "52",
    "addr:postcode": "12000",
    "addr:street": "Žitná",
    "amenity": "restaurant",
    "name": "Mechanický Balet",
    "opening_hours": "Mo-Fr 11:00-24:00; Sa 12:00-24:00",
    "phone": "+420 604 978 925",
    "website": "www.mechanickybalet.cz",
    "id": "node/4328186520"
  },
  "geometry": {
    "type": "Point",
    "coordinates": [
      14.4302265,
      50.0769959
    ]
  }
},
{
  "type": "Feature",
  "id": "node/4445201799",
  "properties": {
    "addr:city": "Praha",
    "addr:conscriptionnumber": "1667",
    "addr:country": "CZ",
    "addr:housenumber": "1667/41",
    "addr:place": "Nové Město",
    "addr:postcode": "11000",
    "addr:street": "Žitná",
    "addr:streetnumber": "41",
    "addr:suburb": "Praha 1",
    "amenity": "restaurant",
    "cuisine": "american;burger;mexican",
    "facebook": "https://www.facebook.com/yesburger.cz/",
    "internet_access": "wlan",
    "internet_access:fee": "no",
    "name": "Yes Burger",
    "opening_hours": "Mo-Su 10:00-24:00",
    "phone": "+420 774 350 370",
    "ref:ruian:addr": "21713324",
    "source:addr": "cuzk:ruian",
    "source:loc": "survey",
    "takeaway": "yes",
    "website": "http://yesburger.cz/",
    "id": "node/4445201799"
  },
  "geometry": {
    "type": "Point",
    "coordinates": [
      14.4282101,
      50.077323
    ]
  }
},
{
  "type": "Feature",
  "id": "node/4520533877",
  "properties": {
    "amenity": "restaurant",
    "cuisine": "asian",
    "description": "asia sushi restaurant",
    "name": "Tang Cheng",
    "id": "node/4520533877"
  },
  "geometry": {
    "type": "Point",
    "coordinates": [
      14.424458,
      50.0761183
    ]
  }
},
{
  "type": "Feature",
  "id": "node/4643104801",
  "properties": {
    "addr:conscriptionnumber": "1764",
    "addr:housenumber": "1764/11",
    "addr:street": "Žitná",
    "addr:streetnumber": "11",
    "amenity": "restaurant",
    "cuisine": "vietnamese;asian",
    "name": "U Fugiho",
    "name:cs": "U Fugiho",
    "opening_hours": "Mo-Su 11:00-23:00",
    "phone": "+420 775 252 888",
    "website": "http://www.ufugiho.com",
    "id": "node/4643104801"
  },
  "geometry": {
    "type": "Point",
    "coordinates": [
      14.4230372,
      50.0775286
    ]
  }
},
{
  "type": "Feature",
  "id": "node/4810072722",
  "properties": {
    "amenity": "restaurant",
    "name:en": "Miss sophis",
    "id": "node/4810072722"
  },
  "geometry": {
    "type": "Point",
    "coordinates": [
      14.4268694,
      50.0751992
    ]
  }
},
{
  "type": "Feature",
  "id": "node/5599273677",
  "properties": {
    "amenity": "restaurant",
    "cuisine": "vietnamese",
    "name": "Vietnamese Pho",
    "takeaway": "yes",
    "id": "node/5599273677"
  },
  "geometry": {
    "type": "Point",
    "coordinates": [
      14.4220953,
      50.0754887
    ]
  }
},
{
  "type": "Feature",
  "id": "node/6440699200",
  "properties": {
    "amenity": "restaurant",
    "internet_access": "wlan",
    "internet_access:fee": "no",
    "name": "U Dlabačů",
    "opening_hours": "11:00-23:00",
    "toilets": "yes",
    "id": "node/6440699200"
  },
  "geometry": {
    "type": "Point",
    "coordinates": [
      14.4271974,
      50.0758734
    ]
  }
}
]
}
